IRIDIUM 150             
1 43257U 18030J   24322.86019300  .00000460  00000+0  15720-3 0  9990
2 43257  86.4000 171.3702 0001974  77.8342 282.3075 14.34209819347556
IRIDIUM 143             
1 43258U 18030K   24322.91091994  .00000456  00000+0  15566-3 0  9999
2 43258  86.4003 171.4189 0001930  69.6258 290.5145 14.34216919347498
IRIDIUM 161             
1 43478U 18047C   24322.75239256  .00000302  00000+0  83708-4 0  9992
2 43478  86.4472 329.3726 0002376  86.9176 273.2297 14.43273938341998
IRIDIUM 152             
1 43479U 18047D   24322.74410228  .00000229  00000+0  74719-4 0  9992
2 43479  86.3947 329.2356 0002423  93.4485 266.6988 14.34215921339866
IRIDIUM 147             
1 43480U 18047E   24322.75043896  .00000256  00000+0  84390-4 0  9994
2 43480  86.3948 329.2277 0002342  99.7203 260.4258 14.34216634339862
IRIDIUM 110             
1 43481U 18047F   24322.96609467  .00000208  00000+0  67307-4 0  9996
2 43481  86.3949 329.2144 0002673  97.2011 262.9488 14.34217715339889
IRIDIUM 162             
1 43482U 18047G   24323.09273290  .00000277  00000+0  76480-4 0  9991
2 43482  86.4470 329.1281 0002518  92.4367 267.7123 14.43270619342032
IRIDIUM 160             
1 43569U 18061A   24322.91191981  .00000440  00000+0  14995-3 0  9993
2 43569  86.3929 297.5953 0002233  93.4062 266.7389 14.34214698330773
